OPS 6582 (TRANSIT 5B-5) 
1 00965U 64083D   24233.47420181  .00000144  00000+0  18836-3 0  9999
2 00965  90.0483 198.6070 0043291  65.8177  58.1491 13.56899073953321
LES-1                   
1 01002U 65008C   24233.24930695 -.00000009  00000+0 -23382-2 0  9994
2 01002  32.1392 182.2820 0014301  28.1026 332.0241  9.88354376150303
SOLRAD 7B               
1 01291U 65016D   24233.37567687  .00000168  00000+0  16413-3 0  9996
2 01291  70.0773 211.6514 0023824 274.9191  84.9195 13.94809993 23850
SECOR 4 (EGRS 4)        
1 01315U 65027B   24233.35216946  .00000075  00000+0  24693-3 0  9998
2 01315  90.2452   0.7115 0032353 136.8144 277.9101 12.92644498800904
TIROS 10                
1 01430U 65051A   24233.33270050  .00000711  00000+0  23092-3 0  9996
2 01430  98.4427 347.3029 0054651 279.2382  80.2628 14.41001255 99991
ALOUETTE 2              
1 01804U 65098A   24233.15997289  .00001455  00000+0  47488-3 0  9993
2 01804  79.8005 122.8052 1335157 141.9314 228.4178 12.27165659597537
OV3-3                   
1 02389U 66070A   24233.55538842  .00030331  00000+0  14935-2 0  9998
2 02389  81.3354 188.9719 1114036  58.5385 311.9809 13.21733028510132
SECOR 7 (EGRS 7)        
1 02411U 66077B   24232.53835977  .00000030  00000+0  14333-1 0  9991
2 02411  90.3252 269.6696 0014322  14.0377 346.0870  8.59615687820091
ERS 15                  
1 02412U 66077C   24233.05286476  .00000002  00000+0  00000+0 0  9997
2 02412  90.3252 269.4731 0008673  21.5403 338.5811  8.59077451333254
ISIS 1                  
1 03669U 69009A   24233.44700487  .00000266  00000+0  17693-3 0  9998
2 03669  88.4383 217.1082 1709948 152.0215 218.4513 11.29948423284567
SECOR 13 (EGRS 13)      
1 03891U 69037B   24233.58419920  .00000008  00000+0  89283-4 0  9999
2 03891  99.7427 119.7397 0040319  83.2612 341.2568 13.42932255712417
ATS 5                   
1 04068U 69069A   24233.57733890  .00000075  00000+0  00000+0 0  9994
2 04068   1.6671 266.6550 0003839 346.7017 133.0900  0.99492430 39707
OPS 7613 (P/L 4)        
1 04237U 69082E   24233.62569900  .00000150  00000+0  14843-3 0  9990
2 04237  70.0140  85.5058 0023114 277.3431 144.2263 13.95790755793427
OPS 7613 (P/L 1)        
1 04256U 69082B   24233.61397364  .00000367  00000+0  29084-3 0  9996
2 04256  70.0111 314.4950 0020904 222.7987 137.1494 13.98832288797371
SHINSEI (MS-F2)         
1 05485U 71080A   24233.29550887  .00000038  00000+0  27366-4 0  9994
2 05485  32.0571 104.3650 0640335 316.2687  38.8856 12.74199115464287
PROSPERO (BLACK ARROW)  
1 05580U 71093A   24233.26102524  .00006194  00000+0  13660-2 0  9991
2 05580  82.0436 154.1770 0513419 333.3036  24.2504 13.98428947655325
OPS 7898 (P/L 2)        
1 05680U 71110C   24233.55571984  .00000075  00000+0  13157-3 0  9998
2 05680  69.9900 296.4954 0010503 281.6768  78.3147 13.74654587256733
NOAA 2 (ITOS-D)         
1 06235U 72082A   24233.59709997 -.00000019  00000+0  17642-3 0  9997
2 06235 102.0189 233.3169 0004162   4.6030 106.8047 12.53184566371572
OSCAR 7 (AO-7)          
1 07530U 74089B   24233.63956856 -.00000023  00000+0  14891-3 0  9996
2 07530 101.9828 228.8995 0012034 323.0637 162.7062 12.53678331277114
TIROS N                 
1 11060U 78096A   24233.59248568  .00000560  00000+0  28874-3 0  9991
2 11060  98.5284 271.5693 0010676  16.2982 343.8536 14.18889938584342
PHASE 3B (AO-10)        
1 14129U 83058B   24231.55241400  .00000348  00000+0  00000+0 0  9997
2 14129  27.3997 329.2274 6032384 293.8349  15.8710  2.05864875281737
HILAT                   
1 14154U 83063A   24233.55840534  .00001450  00000+0  47323-3 0  9994
2 14154  82.0220  59.5160 0040547 145.4470 269.7963 14.37650072151905
UOSAT 2 (UO-11)         
1 14781U 84021B   24233.49140483  .00003809  00000+0  42961-3 0  9997
2 14781  97.7102 200.8655 0006988 213.6515 146.4258 14.87132659158043
NOAA 9                  
1 15427U 84123A   24233.59653083  .00000492  00000+0  26939-3 0  9996
2 15427  99.1216 232.6225 0015778  75.3149  34.2478 14.16655398 49164
GEOSAT                  
1 15595U 85021A   24233.62860588  .00000887  00000+0  32980-3 0  9995
2 15595 108.0528 136.4562 0001318 262.6241  97.4751 14.39116904 66984
EUTELSAT 1-F4 (ECS 4)   
1 18351U 87078B   24232.53358264 -.00000267  00000+0  00000+0 0  9991
2 18351  14.3056 346.8255 0007324  50.1195 275.5893  0.98691335120173
AKEBONO (EXOS-D)        
1 19822U 89016A   24233.03938274  .00338574  19449-4  16265-2 0  9999
2 19822  74.9179  93.0573 0579441  81.5727 285.0670 14.78611789235749
PACSAT (AO-16)          
1 20439U 90005D   24233.63256618  .00000627  00000+0  24382-3 0  9999
2 20439  98.9017 240.5683 0011168  28.8257  85.9412 14.33455252806569
LUSAT (LO-19)           
1 20442U 90005G   24233.43519993  .00000679  00000+0  26170-3 0  9993
2 20442  98.8871 225.4064 0011677   3.5053 356.6210 14.33617973806984
IRS-1B                  
1 21688U 91061A   24233.57677868  .00000015  00000+0  43891-4 0  9994
2 21688  99.3707 214.9684 0024630  14.4457  93.3682 13.97653680575507
COSMOS 2197             
1 22034U 92042A   24233.60653056  .00000055  00000+0  23915-3 0  9995
2 22034  82.5938 294.2419 0012133 354.3385 124.7748 12.64218571481182
PEGASUS R/B             
1 22491U 93009C   24233.43284022  .00003145  00000+0  65127-3 0  9994
2 22491  24.9787 314.0682 0046010 135.2660 225.1573 14.55736313672429
EYESAT A (AO-27)        
1 22825U 93061C   24233.60643072  .00000447  00000+0  18883-3 0  9995
2 22825  98.7836 287.0390 0007404 247.4606 112.5793 14.30553636611827
ITAMSAT (IO-26)         
1 22826U 93061D   24233.14816072  .00000502  00000+0  20830-3 0  9994
2 22826  98.7785 286.4420 0008078 232.2583 127.7868 14.30940532612043
RADIO ROSTO (RS-15)     
1 23439U 94085A   24233.59131560 -.00000018  00000+0  69083-3 0  9999
2 23439  64.8181 299.6190 0148404 131.6413 229.7329 11.27577929220858
JAS-2 (FO-29)           
1 24278U 96046B   24233.29841946  .00000135  00000+0  17206-3 0  9992
2 24278  98.5793 159.5452 0350612  22.3646 339.2366 13.53201529383105
FORTE                   
1 24920U 97047A   24233.57870409  .00000819  00000+0  35763-3 0  9992
2 24920  69.9527  76.8078 0019753 107.1272 253.2015 14.27235352403681
NOAA 15                 
1 25338U 98030A   24233.62062015  .00000605  00000+0  26787-3 0  9990
2 25338  98.5666 259.3962 0011232 132.4610 227.7522 14.26672350366373
TECHSAT 1B (GO-32)      
1 25397U 98043D   24233.45551697  .00000386  00000+0  18761-3 0  9998
2 25397  98.9277 201.1568 0001327  23.7890 336.3349 14.24097006356564
ISS (ZARYA)             
1 25544U 98067A   24233.70278818  .00090123  00000+0  15410-2 0  9992
2 25544  51.6431 355.7012 0005446 228.9992 271.7510 15.50500145468552
ORSTED                  
1 25635U 99008B   24233.56991563  .00002116  00000+0  49149-3 0  9994
2 25635  96.4649 283.5625 0135502 159.9388 200.7211 14.50131592345434
LANDSAT 7               
1 25682U 99020A   24233.61843439  .00001499  00000+0  31565-3 0  9990
2 25682  97.8858 257.3630 0001729 102.9874   7.2155 14.60848525348543
ORBCOMM FM36            
1 25984U 99065E   24233.57789735  .00003914  00000+0  13795-2 0  9995
2 25984  45.0394  73.5992 0003553 215.6085 144.4526 14.36114159291174
DMSP 5D-3 F15 (USA 147) 
1 25991U 99067A   24233.61923741  .00000588  00000+0  31503-3 0  9999
2 25991  99.0650 250.2955 0011007  93.8624  14.3868 14.17082258276368
OPAL (OO-38)            
1 26063U 00004C   24233.33848248  .00000792  00000+0  28239-3 0  9999
2 26063 100.2226  35.3502 0036679 115.3919 245.1065 14.37431221287604
IMAGE                   
1 26113U 00017A   24228.08354444 -.00000223  00000+0 -11249-1 0  9997
2 26113  94.1293 304.5327 7564973   8.8488 359.2851  1.68652238150183
CLUSTER II-FM7 (SAMBA)  
1 26410U 00041A   24234.91624560  .00000566  00000+0  00000+0 0  9991
2 26410 140.0938   0.1021 7664209 215.1539 359.3452  0.44193540 29095
CLUSTER II-FM6 (SALSA)  
1 26411U 00041B   24234.79886702  .00223941 -15172-2  00000+0 0  9990
2 26411 149.8242  36.3279 9118124 252.5472 359.7676  0.44243863 17408
CLUSTER II-FM5 (RUMBA)  
1 26463U 00045A   24235.45912950  .00004211  00000+0  00000+0 0  9997
2 26463 151.8083  26.7277 8701743 242.5186 359.6046  0.42891390 17274
CLUSTER II-FM8 (TANGO)  
1 26464U 00045B   24234.91822935  .00000565  00000+0  00000+0 0  9999
2 26464 140.0863   0.0959 7660052 215.1459 359.6441  0.44220000 17352
MEGSAT-1                
1 26546U 00057B   24233.62895499  .00008652  00000+0  74234-3 0  9994
2 26546  64.5544  31.4384 0019776 230.0223 129.9155 14.97883955297670
PHASE 3D (AO-40)        
1 26609U 00072B   24232.46440547  .00000054  00000+0  00000+0 0  9996
2 26609   6.8374  88.8764 7979276 331.3640   2.1028  1.25589536109277
ODIN                    
1 26702U 01007A   24233.62305994  .00021535  00000+0  85918-3 0  9996
2 26702  97.4773 248.6290 0009340  63.7739 296.4458 15.25156524286716
OMNI-M1                 
1 26857U 01026A   24229.36690377 -.00000031  00000+0  00000+0 0  9990
2 26857  44.9819  39.2443 0013832 239.0169 120.8911  3.92402249179281
PCSAT (NO-44)           
1 26931U 01043C   24233.21511242  .00000819  00000+0  33988-3 0  9992
2 26931  67.0508 166.1308 0007791 271.3064  88.7145 14.31328250195110
PROBA-1                 
1 26958U 01049B   24233.57528418  .00005554  00000+0  41552-3 0  9996
2 26958  97.9132 211.4015 0059532 205.5643 154.2634 15.01759783243499
SPOT 5                  
1 27421U 02021A   24233.56652734  .00001732  00000+0  38073-3 0  9999
2 27421  98.0835 287.7420 0132253 182.5466 177.5074 14.53455084166103
FENGYUN 1D              
1 27431U 02024B   24233.59989917  .00000254  00000+0  16935-3 0  9993
2 27431  99.0504 272.5416 0014644 315.6269  44.3727 14.10014691145671
SAUDISAT 1C (SO-50)     
1 27607U 02058C   24233.63135658  .00004592  00000+0  62851-3 0  9992
2 27607  64.5565  23.4077 0025528  76.9159 283.4793 14.79422322165854
